{
  "type": "FeatureCollection",
  "features": [
    {
      "type": "Feature",
      "properties": {
        "norad_id": 66664,
        "name": "SOYUZ-MS 28",
        "group": "last-30-days",
        "lat": -51.5862115136597,
        "lon": 101.89909720185686,
        "alt_km": 422.9225810878115,
        "timestamp": "2025-12-02T06:27:51.802971+00:00",
        "meta_object_name": "SOYUZ-MS 28",
        "meta_object_id": "2025-275A",
        "meta_epoch": "2025-12-01T13:49:44.445504",
        "meta_mean_motion": 15.49226524,
        "meta_eccentricity": 0.00036473,
        "meta_inclination": 51.6309,
        "meta_ra_of_asc_node": 197.7449,
        "meta_arg_of_pericenter": 190.9481,
        "meta_mean_anomaly": 169.1428,
        "meta_ephemeris_type": 0,
        "meta_classification_type": "U",
        "meta_norad_cat_id": 66664,
        "meta_element_set_no": 999,
        "meta_rev_at_epoch": 71,
        "meta_bstar": 0.00016365535,
        "meta_mean_motion_dot": 8.648e-05,
        "meta_mean_motion_ddot": 0,
        "tle_line1": "1 66664U 25275A   25335.57620886  .00008648  00000+0  16366-3 0  9999",
        "tle_line2": "2 66664  51.6309 197.7449 0003647 190.9481 169.1428 15.49226524   716"
      },
      "geometry": {
        "type": "Point",
        "coordinates": [
          101.89909720185686,
          -51.5862115136597
        ]
      }
    }
  ]
}